ONEWEB-0212             
1 48791U 21045AA  25330.21290069  .00000175  00000+0  43056-3 0  9996
2 48791  87.8986 299.6790 0001833  81.2352 278.8985 13.15549906217746
ONEWEB-0227             
1 48792U 21045AB  25330.21210264  .00000216  00000+0  54028-3 0  9993
2 48792  87.8969 299.6910 0002031  82.5991 277.5370 13.15547956217697
ONEWEB-0226             
1 48793U 21045AC  25330.20577291  .00000003  00000+0 -27290-4 0  9996
2 48793  87.8972 299.7012 0002144  88.2867 271.8509 13.15548169217661
ONEWEB-0224             
1 48794U 21045AD  25329.86509922 -.00000068  00000+0 -21510-3 0  9993
2 48794  87.8972 299.8042 0002345  60.8890 299.2475 13.15548085217541
ONEWEB-0233             
1 48795U 21045AE  25330.17393728 -.00000099  00000+0 -29767-3 0  9991
2 48795  87.8972 299.7535 0002181  79.5700 280.5676 13.15547983217602
ONEWEB-0190             
1 48796U 21045AF  25330.16140000  .00000109  00000+0  25577-3 0  9999
2 48796  87.8971 299.7178 0002674  84.3616 275.7819 13.15548046217675
ONEWEB-0236             
1 48797U 21045AG  25329.87460222 -.00000021  00000+0 -91094-4 0  9990
2 48797  87.8973 299.7866 0001757  80.9029 279.2300 13.15547815217524
ONEWEB-0248             
1 48798U 21045AH  25330.19151020  .00000017  00000+0  12356-4 0  9998
2 48798  87.8977 299.6848 0002395  74.5247 285.6147 13.15549114217724
ONEWEB-0225             
1 48799U 21045AJ  25329.98552486  .00000122  00000+0  28924-3 0  9999
2 48799  87.8975 299.7512 0002486  82.9040 277.2373 13.15548230217701
ONEWEB-0215             
1 48800U 21045AK  25330.18358927 -.00000170  00000+0 -48548-3 0  9999
2 48800  87.8990 299.6704 0002548  79.1651 280.9766 13.15548652217602
ONEWEB-0216             
1 48801U 21045AL  25330.19309220  .00000007  00000+0 -15267-4 0  9994
2 48801  87.8970 299.7016 0001953  89.3692 270.7662 13.15547545217618
ONEWEB-0239             
1 48802U 21045AM  25330.19784846  .00000023  00000+0  28266-4 0  9996
2 48802  87.8975 299.7154 0002581  72.4027 287.7385 13.15549548217659
ONEWEB-0249             
1 48967U 21060A   25330.06422220  .00000026  00000+0  34903-4 0  9994
2 48967  87.9033 269.2276 0001978  76.9106 283.2246 13.16593551212881
ONEWEB-0250             
1 48968U 21060B   25330.07182825  .00000002  00000+0 -24878-4 0  9995
2 48968  87.9029 267.6466 0002170  49.7256 310.4070 13.25818811213304
ONEWEB-0252             
1 48970U 21060D   25330.09586731 -.00000705  00000+0 -18791-2 0  9990
2 48970  87.9031 269.2144 0002135  85.5408 274.5967 13.16598199212936
ONEWEB-0253             
1 48971U 21060E   25329.85682097 -.00000025  00000+0 -99263-4 0  9995
2 48971  87.9035 269.2664 0002063  78.1093 282.0269 13.16594919212830
ONEWEB-0254             
1 48972U 21060F   25330.09431117  .00000015  00000+0  43375-5 0  9990
2 48972  87.9038 269.2097 0002202  73.2020 286.9352 13.16595569212866
