[{"OBJECT_NAME":"ONEWEB-0212","OBJECT_ID":"2021-045AA","EPOCH":"2025-11-26T05:06:34.619616","MEAN_MOTION":13.15549906,"ECCENTRICITY":0.0001833,"INCLINATION":87.8986,"RA_OF_ASC_NODE":299.679,"ARG_OF_PERICENTER":81.2352,"MEAN_ANOMALY":278.8985,"EPHEMERIS_TYPE":0,"CLASSIFICATION_TYPE":"U","NORAD_CAT_ID":48791,"ELEMENT_SET_NO":999,"REV_AT_EPOCH":21774,"BSTAR":0.00043056,"MEAN_MOTION_DOT":1.75e-6,"MEAN_MOTION_DDOT":0},{"OBJECT_NAME":"ONEWEB-0227","OBJECT_ID":"2021-045AB","EPOCH":"2025-11-26T05:05:25.668096","MEAN_MOTION":13.15547956,"ECCENTRICITY":0.0002031,"INCLINATION":87.8969,"RA_OF_ASC_NODE":299.691,"ARG_OF_PERICENTER":82.5991,"MEAN_ANOMALY":277.537,"EPHEMERIS_TYPE":0,"CLASSIFICATION_TYPE":"U","NORAD_CAT_ID":48792,"ELEMENT_SET_NO":999,"REV_AT_EPOCH":21769,"BSTAR":0.00054028,"MEAN_MOTION_DOT":2.16e-6,"MEAN_MOTION_DDOT":0},{"OBJECT_NAME":"ONEWEB-0226","OBJECT_ID":"2021-045AC","EPOCH":"2025-11-26T04:56:18.779424","MEAN_MOTION":13.15548169,"ECCENTRICITY":0.0002144,"INCLINATION":87.8972,"RA_OF_ASC_NODE":299.7012,"ARG_OF_PERICENTER":88.2867,"MEAN_ANOMALY":271.8509,"EPHEMERIS_TYPE":0,"CLASSIFICATION_TYPE":"U","NORAD_CAT_ID":48793,"ELEMENT_SET_NO":999,"REV_AT_EPOCH":21766,"BSTAR":-2.729e-5,"MEAN_MOTION_DOT":3.0e-8,"MEAN_MOTION_DDOT":0},{"OBJECT_NAME":"ONEWEB-0224","OBJECT_ID":"2021-045AD","EPOCH":"2025-11-25T20:45:44.572608","MEAN_MOTION":13.15548085,"ECCENTRICITY":0.00023453,"INCLINATION":87.8972,"RA_OF_ASC_NODE":299.8042,"ARG_OF_PERICENTER":60.889,"MEAN_ANOMALY":299.2475,"EPHEMERIS_TYPE":0,"CLASSIFICATION_TYPE":"U","NORAD_CAT_ID":48794,"ELEMENT_SET_NO":999,"REV_AT_EPOCH":21754,"BSTAR":-0.00021509626,"MEAN_MOTION_DOT":-6.8e-7,"MEAN_MOTION_DDOT":0},{"OBJECT_NAME":"ONEWEB-0233","OBJECT_ID":"2021-045AE","EPOCH":"2025-11-26T04:10:28.180992","MEAN_MOTION":13.15547983,"ECCENTRICITY":0.0002181,"INCLINATION":87.8972,"RA_OF_ASC_NODE":299.7535,"ARG_OF_PERICENTER":79.57,"MEAN_ANOMALY":280.5676,"EPHEMERIS_TYPE":0,"CLASSIFICATION_TYPE":"U","NORAD_CAT_ID":48795,"ELEMENT_SET_NO":999,"REV_AT_EPOCH":21760,"BSTAR":-0.00029767,"MEAN_MOTION_DOT":-9.9e-7,"MEAN_MOTION_DDOT":0},{"OBJECT_NAME":"ONEWEB-0190","OBJECT_ID":"2021-045AF","EPOCH":"2025-11-26T03:52:24.960000","MEAN_MOTION":13.15548046,"ECCENTRICITY":0.0002674,"INCLINATION":87.8971,"RA_OF_ASC_NODE":299.7178,"ARG_OF_PERICENTER":84.3616,"MEAN_ANOMALY":275.7819,"EPHEMERIS_TYPE":0,"CLASSIFICATION_TYPE":"U","NORAD_CAT_ID":48796,"ELEMENT_SET_NO":999,"REV_AT_EPOCH":21767,"BSTAR":0.00025577,"MEAN_MOTION_DOT":1.09e-6,"MEAN_MOTION_DDOT":0},{"OBJECT_NAME":"ONEWEB-0236","OBJECT_ID":"2021-045AG","EPOCH":"2025-11-25T20:59:25.631808","MEAN_MOTION":13.15547815,"ECCENTRICITY":0.00017573,"INCLINATION":87.8973,"RA_OF_ASC_NODE":299.7866,"ARG_OF_PERICENTER":80.9029,"MEAN_ANOMALY":279.23,"EPHEMERIS_TYPE":0,"CLASSIFICATION_TYPE":"U","NORAD_CAT_ID":48797,"ELEMENT_SET_NO":999,"REV_AT_EPOCH":21752,"BSTAR":-9.1093836e-5,"MEAN_MOTION_DOT":-2.1e-7,"MEAN_MOTION_DDOT":0},{"OBJECT_NAME":"ONEWEB-0248","OBJECT_ID":"2021-045AH","EPOCH":"2025-11-26T04:35:46.481280","MEAN_MOTION":13.15549114,"ECCENTRICITY":0.0002395,"INCLINATION":87.8977,"RA_OF_ASC_NODE":299.6848,"ARG_OF_PERICENTER":74.5247,"MEAN_ANOMALY":285.6147,"EPHEMERIS_TYPE":0,"CLASSIFICATION_TYPE":"U","NORAD_CAT_ID":48798,"ELEMENT_SET_NO":999,"REV_AT_EPOCH":21772,"BSTAR":1.2356e-5,"MEAN_MOTION_DOT":1.7e-7,"MEAN_MOTION_DDOT":0},{"OBJECT_NAME":"ONEWEB-0225","OBJECT_ID":"2021-045AJ","EPOCH":"2025-11-25T23:39:09.347904","MEAN_MOTION":13.1554823,"ECCENTRICITY":0.00024867,"INCLINATION":87.8975,"RA_OF_ASC_NODE":299.7512,"ARG_OF_PERICENTER":82.904,"MEAN_ANOMALY":277.2373,"EPHEMERIS_TYPE":0,"CLASSIFICATION_TYPE":"U","NORAD_CAT_ID":48799,"ELEMENT_SET_NO":999,"REV_AT_EPOCH":21770,"BSTAR":0.00028923824,"MEAN_MOTION_DOT":1.22e-6,"MEAN_MOTION_DDOT":0},{"OBJECT_NAME":"ONEWEB-0215","OBJECT_ID":"2021-045AK","EPOCH":"2025-11-26T04:24:22.112928","MEAN_MOTION":13.15548652,"ECCENTRICITY":0.0002548,"INCLINATION":87.899,"RA_OF_ASC_NODE":299.6704,"ARG_OF_PERICENTER":79.1651,"MEAN_ANOMALY":280.9766,"EPHEMERIS_TYPE":0,"CLASSIFICATION_TYPE":"U","NORAD_CAT_ID":48800,"ELEMENT_SET_NO":999,"REV_AT_EPOCH":21760,"BSTAR":-0.00048548,"MEAN_MOTION_DOT":-1.7e-6,"MEAN_MOTION_DDOT":0},{"OBJECT_NAME":"ONEWEB-0216","OBJECT_ID":"2021-045AL","EPOCH":"2025-11-26T04:38:03.166080","MEAN_MOTION":13.15547545,"ECCENTRICITY":0.0001953,"INCLINATION":87.897,"RA_OF_ASC_NODE":299.7016,"ARG_OF_PERICENTER":89.3692,"MEAN_ANOMALY":270.7662,"EPHEMERIS_TYPE":0,"CLASSIFICATION_TYPE":"U","NORAD_CAT_ID":48801,"ELEMENT_SET_NO":999,"REV_AT_EPOCH":21761,"BSTAR":-1.5267e-5,"MEAN_MOTION_DOT":7.0e-8,"MEAN_MOTION_DDOT":0},{"OBJECT_NAME":"ONEWEB-0239","OBJECT_ID":"2021-045AM","EPOCH":"2025-11-26T04:44:54.106944","MEAN_MOTION":13.15549548,"ECCENTRICITY":0.0002581,"INCLINATION":87.8975,"RA_OF_ASC_NODE":299.7154,"ARG_OF_PERICENTER":72.4027,"MEAN_ANOMALY":287.7385,"EPHEMERIS_TYPE":0,"CLASSIFICATION_TYPE":"U","NORAD_CAT_ID":48802,"ELEMENT_SET_NO":999,"REV_AT_EPOCH":21765,"BSTAR":2.8266e-5,"MEAN_MOTION_DOT":2.3e-7,"MEAN_MOTION_DDOT":0},{"OBJECT_NAME":"ONEWEB-0249","OBJECT_ID":"2021-060A","EPOCH":"2025-11-26T01:32:28.798080","MEAN_MOTION":13.16593551,"ECCENTRICITY":0.0001978,"INCLINATION":87.9033,"RA_OF_ASC_NODE":269.2276,"ARG_OF_PERICENTER":76.9106,"MEAN_ANOMALY":283.2246,"EPHEMERIS_TYPE":0,"CLASSIFICATION_TYPE":"U","NORAD_CAT_ID":48967,"ELEMENT_SET_NO":999,"REV_AT_EPOCH":21288,"BSTAR":3.4903e-5,"MEAN_MOTION_DOT":2.6e-7,"MEAN_MOTION_DDOT":0},{"OBJECT_NAME":"ONEWEB-0250","OBJECT_ID":"2021-060B","EPOCH":"2025-11-26T01:43:25.960800","MEAN_MOTION":13.25818811,"ECCENTRICITY":0.000217,"INCLINATION":87.9029,"RA_OF_ASC_NODE":267.6466,"ARG_OF_PERICENTER":49.7256,"MEAN_ANOMALY":310.407,"EPHEMERIS_TYPE":0,"CLASSIFICATION_TYPE":"U","NORAD_CAT_ID":48968,"ELEMENT_SET_NO":999,"REV_AT_EPOCH":21330,"BSTAR":-2.4878e-5,"MEAN_MOTION_DOT":2.0e-8,"MEAN_MOTION_DDOT":0},{"OBJECT_NAME":"ONEWEB-0252","OBJECT_ID":"2021-060D","EPOCH":"2025-11-26T02:18:02.935584","MEAN_MOTION":13.16598199,"ECCENTRICITY":0.0002135,"INCLINATION":87.9031,"RA_OF_ASC_NODE":269.2144,"ARG_OF_PERICENTER":85.5408,"MEAN_ANOMALY":274.5967,"EPHEMERIS_TYPE":0,"CLASSIFICATION_TYPE":"U","NORAD_CAT_ID":48970,"ELEMENT_SET_NO":999,"REV_AT_EPOCH":21293,"BSTAR":-0.0018791,"MEAN_MOTION_DOT":-7.05e-6,"MEAN_MOTION_DDOT":0},{"OBJECT_NAME":"ONEWEB-0253","OBJECT_ID":"2021-060E","EPOCH":"2025-11-25T20:33:49.331808","MEAN_MOTION":13.16594919,"ECCENTRICITY":0.00020635,"INCLINATION":87.9035,"RA_OF_ASC_NODE":269.2664,"ARG_OF_PERICENTER":78.1093,"MEAN_ANOMALY":282.0269,"EPHEMERIS_TYPE":0,"CLASSIFICATION_TYPE":"U","NORAD_CAT_ID":48971,"ELEMENT_SET_NO":999,"REV_AT_EPOCH":21283,"BSTAR":-9.9263468e-5,"MEAN_MOTION_DOT":-2.5e-7,"MEAN_MOTION_DDOT":0},{"OBJECT_NAME":"ONEWEB-0254","OBJECT_ID":"2021-060F","EPOCH":"2025-11-26T02:15:48.485088","MEAN_MOTION":13.16595569,"ECCENTRICITY":0.0002202,"INCLINATION":87.9038,"RA_OF_ASC_NODE":269.2097,"ARG_OF_PERICENTER":73.202,"MEAN_ANOMALY":286.9352,"EPHEMERIS_TYPE":0,"CLASSIFICATION_TYPE":"U","NORAD_CAT_ID":48972,"ELEMENT_SET_NO":999,"REV_AT_EPOCH":21286,"BSTAR":4.3375e-6,"MEAN_MOTION_DOT":1.5e-7,"MEAN_MOTION_DDOT":0}]
